<?xml version="1.0" encoding="UTF-8"?>
<kml xmlns="http://www.opengis.net/kml/2.2">
  <Document>
    <name>Exemplo de Polígono</name>
    <description>Um polígono de exemplo para testar o mapa</description>
    <Placemark>
      <name>Propriedade Exemplo</name>
      <description>Uma propriedade de exemplo</description>
      <Polygon>
        <extrude>1</extrude>
        <altitudeMode>relativeToGround</altitudeMode>
        <outerBoundaryIs>
          <LinearRing>
            <coordinates>
              -47.9292,-15.7801,0
              -47.9290,-15.7801,0
              -47.9290,-15.7799,0
              -47.9292,-15.7799,0
              -47.9292,-15.7801,0
            </coordinates>
          </LinearRing>
        </outerBoundaryIs>
      </Polygon>
    </Placemark>
  </Document>
</kml>
